0 COSMOS 2251 DEB
1 35292U 93036AJW 13279.35643627  .00006235  00000-0  12775-2 0  4298
2 35292 074.0109 052.8455 0052299 231.1555 128.5138 14.60082383235634
0 COSMOS 2251 DEB
1 35292U 93036AJW 13282.02858309  .00006570  00000-0  13457-2 0  4303
2 35292 074.0097 047.7339 0051101 226.6370 133.1034 14.60122911236022
0 COSMOS 2251 DEB
1 35292U 93036AJW 13283.67290865  .00017008  00000-0  34626-2 0  4323
2 35292 074.0147 044.5900 0051668 221.8062 137.9643 14.60161491236260
0 COSMOS 2251 DEB
1 35292U 93036AJW 13283.67293835  .00006894  00000-0  14119-2 0  4318
2 35292 074.0105 044.5891 0049888 226.8787 132.9014 14.60151784236264
0 COSMOS 2251 DEB
1 35292U 93036AJW 13285.31725450  .00007460  00000-0  15222-2 0  4321
2 35292 074.0172 041.4558 0053289 218.2976 141.6934 14.60187846236502
0 COSMOS 2251 DEB
1 35292U 93036AJW 13286.00233104  .00007508  00000-0  15321-2 0  4332
2 35292 074.0140 040.1440 0052974 216.1857 143.5909 14.60199172236607
0 COSMOS 2251 DEB
1 35292U 93036AJW 13289.97595299  .00010970  00000-0  22312-2 0  4343
2 35292 074.0122 032.5441 0051451 209.1978 151.3006 14.60313098237182
0 COSMOS 2251 DEB
1 35292U 93036AJW 13290.93491451  .00010174  00000-0  20711-2 0  4354
2 35292 074.0101 030.7216 0050343 204.7213 155.1042 14.60325646237321
0 COSMOS 2251 DEB
1 35292U 93036AJW 13292.57905025  .00010578  00000-0  21517-2 0  4367
2 35292 074.0093 027.5697 0049828 206.8986 153.0823 14.60367652237567
0 COSMOS 2251 DEB
1 35292U 93036AJW 13292.92154745  .00010623  00000-0  21601-2 0  4377
2 35292 074.0099 026.9184 0049996 204.2749 155.6218 14.60375904237613
